GPS BIIR-2  (PRN 13)    
1 24876C 97035A   21280.69312500 -.00000000  00000-0  00000-0 0  2804
2 24876  55.4795 165.5354 0053526  54.1306  26.5882  2.00562386    17
GPS BIIR-4  (PRN 20)    
1 26360C 00025A   21280.69312500 -.00000000  00000-0  00000-0 0  2807
2 26360  53.8593  89.3285 0055100 174.0846 353.5916  2.00564114    14
GPS BIIR-8  (PRN 16)    
1 27663C 03005A   21280.69312500  .00000000  00000-0  00000-0 0  2804
2 27663  55.6936 283.0916 0121327  38.0167 107.4076  2.00552523    10
GPS BIIR-9  (PRN 21)    
1 27704C 03010A   21280.69312500 -.00000000  00000-0  00000-0 0  2807
2 27704  54.9158  33.5592 0243262 298.0338  64.6107  2.00568302    14
GPS BIIR-10 (PRN 22)    
1 28129C 03058A   21280.69312500 -.00000000  00000-0  00000-0 0  2801
2 28129  53.6702  91.9688 0068939 307.8955 354.1487  2.00558164    14
GPS BIIR-11 (PRN 19)    
1 28190C 04009A   21280.69312500  .00000000  00000-0  00000-0 0  2805
2 28190  56.1369 344.0057 0088532 112.5731 193.9360  2.00565716    15
GPS BIIR-13 (PRN 02)    
1 28474C 04045A   21280.69312500 -.00000000  00000-0  00000-0 0  2801
2 28474  55.2480  33.6043 0205906 274.5395 302.9190  2.00552266    10
GPS BIIRM-1 (PRN 17)    
1 28874C 05038A   21280.69312500  .00000000  00000-0  00000-0 0  2807
2 28874  56.2142 341.4268 0138730 271.1417  58.8939  2.00563367    19
GPS BIIRM-2 (PRN 31)    
1 29486C 06042A   21280.69312500  .00000000  00000-0  00000-0 0  2803
2 29486  54.7506 219.3338 0101883  16.3503 228.2296  2.00569185    14
GPS BIIRM-3 (PRN 12)    
1 29601C 06052A   21280.69312500  .00000000  00000-0  00000-0 0  2803
2 29601  55.6927 282.0209 0080305  69.8402 212.5622  2.00563931    12
GPS BIIRM-4 (PRN 15)    
1 32260C 07047A   21280.69312500 -.00000000  00000-0  00000-0 0  2804
2 32260  53.2524 151.0199 0135600  58.8970   5.4031  2.00561472    15
GPS BIIRM-5 (PRN 29)    
1 32384C 07062A   21280.69312500  .00000000  00000-0  00000-0 0  2807
2 32384  56.3251 342.1562 0017593 140.7844  52.1041  2.00575915    18
GPS BIIRM-6 (PRN 07)    
1 32711C 08012A   21280.69312500  .00000000  00000-0  00000-0 0  2807
2 32711  54.5052 218.3265 0154619 228.5667 252.2338  2.00556271    10
GPS BIIRM-8 (PRN 05)    
1 35752C 09043A   21280.69312500 -.00000000  00000-0  00000-0 0  2801
2 35752  54.8853  95.7226 0058791  56.3010  79.6855  2.00572250    17
GPS BIIF-1  (PRN 25)    
1 36585C 10022A   21280.69312500  .00000000  00000-0  00000-0 0  2804
2 36585  54.9701 277.7159 0096679  54.3023 203.7579  2.00552012    18
GPS BIIF-2  (PRN 01)    
1 37753C 11036A   21280.69312500 -.00000000  00000-0  00000-0 0  2809
2 37753  56.4802  38.5630 0108928  50.2328 289.2395  2.00563707    14
GPS BIIF-3  (PRN 24)    
1 38833C 12053A   21280.69312500  .00000000  00000-0  00000-0 0  2808
2 38833  53.5565 213.7132 0115656  42.9237 309.8608  2.00558954    19
GPS BIIF-4  (PRN 27)    
1 39166C 13023A   21280.69312500  .00000000  00000-0  00000-0 0  2806
2 39166  55.8525 337.8974 0094043  35.0859  56.1861  2.00567025    13
GPS BIIF-5  (PRN 30)    
1 39533C 14008A   21280.69312500  .00000000  00000-0  00000-0 0  2808
2 39533  53.6567 219.1940 0054376 205.5301 245.3641  2.00567288    18
GPS BIIF-6  (PRN 06)    
1 39741C 14026A   21280.69312500 -.00000000  00000-0  00000-0 0  2800
2 39741  56.4467  38.0902 0024394 298.0320 312.4694  2.00573624    15
GPS BIIF-7  (PRN 09)    
1 40105C 14045A   21280.69312500 -.00000000  00000-0  00000-0 0  2807
2 40105  54.6413 156.8979 0020227 105.4712  79.7684  2.00560477    16
GPS BIIF-8  (PRN 03)    
1 40294C 14068A   21280.69312500 -.00000000  00000-0  00000-0 0  2801
2 40294  55.6315  97.9362 0036937  54.9265 225.0404  2.00553553    17
GPS BIIF-9  (PRN 26)    
1 40534C 15013A   21280.69312500  .00000000  00000-0  00000-0 0  2808
2 40534  53.8750 275.1634 0061628  14.8300 166.4680  2.00567837    13
GPS BIIF-10 (PRN 08)    
1 40730C 15033A   21280.69312500  .00000000  00000-0  00000-0 0  2808
2 40730  55.3576 336.8460 0065584   1.0054  64.3866  2.00564883    15
GPS BIIF-11 (PRN 10)    
1 41019C 15062A   21280.69312500 -.00000000  00000-0  00000-0 0  2802
2 41019  55.6230  97.7740 0071503 213.3811 175.0280  2.00563191    18
GPS BIIF-12 (PRN 32)    
1 41328C 16007A   21280.69312500 -.00000000  00000-0  00000-0 0  2805
2 41328  54.8657 157.5061 0052650 225.3085  96.6002  2.00557090    15
GPS BIII-1  (PRN 04)    
1 43873C 18109A   21280.69312500 -.00000000  00000-0  00000-0 0  2807
2 43873  55.0467 159.8717 0014568 191.7082  23.2337  2.00561424    19
GPS BIII-2  (PRN 18)    
1 44506C 19056A   21280.69312500 -.00000000  00000-0  00000-0 0  2803
2 44506  55.5491  39.1221 0019809 177.7032 298.4658  2.00566937    13
GPS BIII-3  (PRN 23)    
1 45854C 20041A   21280.69312500 -.00000000  00000-0  00000-0 0  2806
2 45854  55.3378  96.3886 0016833 162.8300 255.5647  2.00563048    13
GPS BIII-4  (PRN 14)    
1 46826C 20078A   21280.69312500  .00000000  00000-0  00000-0 0  2805
2 46826  54.7444 280.3459 0011384 191.0343 196.7274  2.00566814    14
GPS BIII-5  (PRN 11)    
1 48859C 21054A   21280.69312500 -.00000000  00000-0  00000-0 0  2809
2 48859  55.0491  41.2457 0003188 156.1858  62.1763  2.00559056    15
